HAWK-8A                 
1 59443U 24066B   26068.40724718  .00002325  00000+0  20899-3 0  9990
2 59443  45.5937  72.3645 0004214 254.4969 105.5447 14.98766556104869
STARLINK-36192          
1 67024U 25293X   26068.46980497  .00002479  00000+0  21542-3 0  9997
2 67024  70.0008  95.0593 0002902 267.4893  92.5933 14.98335756 14859
